{
  "type": "FeatureCollection",
  "features": [
    {
      "type": "Feature",
      "properties": {
        "norad_id": 54259,
        "name": "EUTELSAT 10B",
        "group": "eutelsat",
        "lat": -0.005283728811057372,
        "lon": -101.56075495471593,
        "alt_km": 35785.959519237025,
        "timestamp": "2025-12-07T11:27:49.659609+00:00",
        "meta_object_name": "EUTELSAT 10B",
        "meta_object_id": "2022-157A",
        "meta_epoch": "2025-12-06T21:50:38.745024",
        "meta_mean_motion": 1.00267719,
        "meta_eccentricity": 0.00010647,
        "meta_inclination": 0.0633,
        "meta_ra_of_asc_node": 101.1933,
        "meta_arg_of_pericenter": 82.8619,
        "meta_mean_anomaly": 229.5334,
        "meta_ephemeris_type": 0,
        "meta_classification_type": "U",
        "meta_norad_cat_id": 54259,
        "meta_element_set_no": 999,
        "meta_rev_at_epoch": 1109,
        "meta_bstar": 0,
        "meta_mean_motion_dot": 7.3e-07,
        "meta_mean_motion_ddot": 0,
        "tle_line1": "1 54259U 22157A   25340.91017066  .00000073  00000+0  00000+0 0  9994",
        "tle_line2": "2 54259   0.0633 101.1933 0001064  82.8619 229.5334  1.00267719 11094"
      },
      "geometry": {
        "type": "Point",
        "coordinates": [
          -101.56075495471593,
          -0.005283728811057372
        ]
      }
    },
    {
      "type": "Feature",
      "properties": {
        "norad_id": 59346,
        "name": "EUTELSAT 36D",
        "group": "eutelsat",
        "lat": -0.02950224992819373,
        "lon": -75.67991953081422,
        "alt_km": 35784.67260318974,
        "timestamp": "2025-12-07T11:27:49.659620+00:00",
        "meta_object_name": "EUTELSAT 36D",
        "meta_object_id": "2024-059A",
        "meta_epoch": "2025-12-06T21:32:21.547104",
        "meta_mean_motion": 1.0026999,
        "meta_eccentricity": 4.478e-05,
        "meta_inclination": 0.0095,
        "meta_ra_of_asc_node": 353.5839,
        "meta_arg_of_pericenter": 303.7384,
        "meta_mean_anomaly": 137.5713,
        "meta_ephemeris_type": 0,
        "meta_classification_type": "U",
        "meta_norad_cat_id": 59346,
        "meta_element_set_no": 999,
        "meta_rev_at_epoch": 621,
        "meta_bstar": 0,
        "meta_mean_motion_dot": 1.61e-06,
        "meta_mean_motion_ddot": 0,
        "tle_line1": "1 59346U 24059A   25340.89747161  .00000161  00000+0  00000+0 0  9990",
        "tle_line2": "2 59346   0.0095 353.5839 0000447 303.7384 137.5713  1.00269990  6214"
      },
      "geometry": {
        "type": "Point",
        "coordinates": [
          -75.67991953081422,
          -0.02950224992819373
        ]
      }
    }
  ]
}